{
    "links": {
        "self": "http://www.neowsapp.com/rest/v1/neo/54017454?api_key=iIulBulltgU6a56xZRHN4H3l9WmuAYTsLGpBGhQ2"
    },
    "id": "54017454",
    "neo_reference_id": "54017454",
    "name": "(2020 LM1)",
    "designation": "2020 LM1",
    "nasa_jpl_url": "http://ssd.jpl.nasa.gov/sbdb.cgi?sstr=54017454",
    "absolute_magnitude_h": 21.529,
    "estimated_diameter": {
        "kilometers": {
            "estimated_diameter_min": 0.1314483008,
            "estimated_diameter_max": 0.2939273362
        },
        "meters": {
            "estimated_diameter_min": 131.4483008443,
            "estimated_diameter_max": 293.9273362148
        },
        "miles": {
            "estimated_diameter_min": 0.0816781621,
            "estimated_diameter_max": 0.1826379228
        },
        "feet": {
            "estimated_diameter_min": 431.2608433421,
            "estimated_diameter_max": 964.3285617469
        }
    },
    "is_potentially_hazardous_asteroid": true,
    "close_approach_data": [
        {
            "close_approach_date": "2020-06-11",
            "close_approach_date_full": "2020-Jun-11 05:13",
            "epoch_date_close_approach": 1591852380000,
            "relative_velocity": {
                "kilometers_per_second": "17.1852821171",
                "kilometers_per_hour": "61867.0156215812",
                "miles_per_hour": "38441.7575677542"
            },
            "miss_distance": {
                "astronomical": "0.1146929035",
                "lunar": "44.6155394615",
                "kilometers": "17157814.067715545",
                "miles": "10661371.287322721"
            },
            "orbiting_body": "Earth"
        }
    ],
    "orbital_data": {
        "orbit_id": "3",
        "orbit_determination_date": "2020-06-23 06:12:50",
        "first_observation_date": "2020-06-15",
        "last_observation_date": "2020-06-22",
        "data_arc_in_days": 7,
        "observations_used": 35,
        "orbit_uncertainty": "9",
        "minimum_orbit_intersection": ".027973",
        "jupiter_tisserand_invariant": "3.229",
        "epoch_osculation": "2459017.5",
        "eccentricity": ".60304894881334",
        "semi_major_axis": "2.36202827641467",
        "inclination": "17.27528745249329",
        "ascending_node_longitude": "75.37222119981672",
        "orbital_period": "1325.946695778187",
        "perihelion_distance": ".9376096072554179",
        "perihelion_argument": "135.0353638511596",
        "aphelion_distance": "3.786446945573922",
        "perihelion_time": "2458977.244505873983",
        "mean_anomaly": "10.92953278703327",
        "mean_motion": ".2715041269352981",
        "equinox": "J2000",
        "orbit_class": {
            "orbit_class_type": "APO",
            "orbit_class_description": "Near-Earth asteroid orbits which cross the Earth’s orbit similar to that of 1862 Apollo",
            "orbit_class_range": "a (semi-major axis) > 1.0 AU; q (perihelion) < 1.017 AU"
        }
    },
    "is_sentry_object": false
}